STARLINK-32087          
1 59702U 24086W   26068.03930761 -.00000809  00000+0 -19882-4 0  9994
2 59702  43.0047  63.4841 0001121 270.5302  89.5421 15.27570023104010
BLUEBON                 
1 62688U 25009CH  26068.70316231  .00010452  00000+0  37313-3 0  9992
2 62688  97.4017 152.2033 0001193  43.3900 316.7434 15.29047253 63767
